[{"OBJECT_NAME":"FLOCK 4G-6","OBJECT_ID":"2025-009BD","EPOCH":"2026-03-09T17:03:16.973568","MEAN_MOTION":15.27432125,"ECCENTRICITY":0.00023795,"INCLINATION":97.398,"RA_OF_ASC_NODE":150.7943,"ARG_OF_PERICENTER":348.2637,"MEAN_ANOMALY":11.8546,"EPHEMERIS_TYPE":0,"CLASSIFICATION_TYPE":"U","NORAD_CAT_ID":62660,"ELEMENT_SET_NO":999,"REV_AT_EPOCH":12130,"BSTAR":0.00045909501,"MEAN_MOTION_DOT":0.00012261,"MEAN_MOTION_DDOT":0},{"OBJECT_NAME":"STARLINK-33758","OBJECT_ID":"2025-101L","EPOCH":"2026-03-08T20:04:55.124832","MEAN_MOTION":15.27581192,"ECCENTRICITY":5.078e-5,"INCLINATION":43.0012,"RA_OF_ASC_NODE":2.8821,"ARG_OF_PERICENTER":258.3313,"MEAN_ANOMALY":101.7481,"EPHEMERIS_TYPE":0,"CLASSIFICATION_TYPE":"U","NORAD_CAT_ID":64004,"ELEMENT_SET_NO":999,"REV_AT_EPOCH":4692,"BSTAR":0.0015990439,"MEAN_MOTION_DOT":0.00044004,"MEAN_MOTION_DDOT":0}]
